[{"OBJECT_NAME":"STARLINK-30916","OBJECT_ID":"2023-178T","EPOCH":"2026-03-09T05:01:57.432864","MEAN_MOTION":15.30187173,"ECCENTRICITY":0.00011284,"INCLINATION":53.1626,"RA_OF_ASC_NODE":3.5031,"ARG_OF_PERICENTER":97.424,"MEAN_ANOMALY":262.6889,"EPHEMERIS_TYPE":0,"CLASSIFICATION_TYPE":"U","NORAD_CAT_ID":58391,"ELEMENT_SET_NO":999,"REV_AT_EPOCH":12981,"BSTAR":5.944348e-6,"MEAN_MOTION_DOT":-1.83e-6,"MEAN_MOTION_DDOT":0},{"OBJECT_NAME":"OBJECT H","OBJECT_ID":"2025-055H","EPOCH":"2026-03-09T23:29:50.051328","MEAN_MOTION":15.30330066,"ECCENTRICITY":0.00075967,"INCLINATION":97.636,"RA_OF_ASC_NODE":211.9572,"ARG_OF_PERICENTER":140.4354,"MEAN_ANOMALY":219.7441,"EPHEMERIS_TYPE":0,"CLASSIFICATION_TYPE":"U","NORAD_CAT_ID":63298,"ELEMENT_SET_NO":999,"REV_AT_EPOCH":5423,"BSTAR":0.0015582864,"MEAN_MOTION_DOT":0.00045901,"MEAN_MOTION_DDOT":0}]
